{"type": "FeatureCollection", "features": [{"type": "Feature", "properties": {"district": "Bengaluru Urban"}, "geometry": {"type": "Polygon", "coordinates": [[[77.2446, 12.6216], [77.9446, 12.6216], [77.9446, 13.3216], [77.2446, 13.3216], [77.2446, 12.6216]]]}}, {"type": "Feature", "properties": {"district": "Mysuru"}, "geometry": {"type": "Polygon", "coordinates": [[[76.2894, 11.9458], [76.98939999999999, 11.9458], [76.98939999999999, 12.6458], [76.2894, 12.6458], [76.2894, 11.9458]]]}}, {"type": "Feature", "properties": {"district": "Hubballi-Dharwad"}, "geometry": {"type": "Polygon", "coordinates": [[[74.774, 15.0147], [75.47399999999999, 15.0147], [75.47399999999999, 15.714699999999999], [74.774, 15.714699999999999], [74.774, 15.0147]]]}}, {"type": "Feature", "properties": {"district": "Mangaluru"}, "geometry": {"type": "Polygon", "coordinates": [[[74.506, 12.5641], [75.20599999999999, 12.5641], [75.20599999999999, 13.2641], [74.506, 13.2641], [74.506, 12.5641]]]}}, {"type": "Feature", "properties": {"district": "Belagavi"}, "geometry": {"type": "Polygon", "coordinates": [[[74.1477, 15.4997], [74.84769999999999, 15.4997], [74.84769999999999, 16.1997], [74.1477, 16.1997], [74.1477, 15.4997]]]}}, {"type": "Feature", "properties": {"district": "Kalaburagi"}, "geometry": {"type": "Polygon", "coordinates": [[[76.4843, 16.979699999999998], [77.1843, 16.979699999999998], [77.1843, 17.6797], [76.4843, 17.6797], [76.4843, 16.979699999999998]]]}}, {"type": "Feature", "properties": {"district": "Ballari"}, "geometry": {"type": "Polygon", "coordinates": [[[76.57140000000001, 14.7894], [77.2714, 14.7894], [77.2714, 15.4894], [76.57140000000001, 15.4894], [76.57140000000001, 14.7894]]]}}, {"type": "Feature", "properties": {"district": "Tumakuru"}, "geometry": {"type": "Polygon", "coordinates": [[[76.75160000000001, 12.9892], [77.4516, 12.9892], [77.4516, 13.6892], [76.75160000000001, 13.6892], [76.75160000000001, 12.9892]]]}}, {"type": "Feature", "properties": {"district": "Shivamogga"}, "geometry": {"type": "Polygon", "coordinates": [[[75.2181, 13.5799], [75.9181, 13.5799], [75.9181, 14.2799], [75.2181, 14.2799], [75.2181, 13.5799]]]}}, {"type": "Feature", "properties": {"district": "Davanagere"}, "geometry": {"type": "Polygon", "coordinates": [[[75.57180000000001, 14.1144], [76.2718, 14.1144], [76.2718, 14.8144], [75.57180000000001, 14.8144], [75.57180000000001, 14.1144]]]}}, {"type": "Feature", "properties": {"district": "Hassan"}, "geometry": {"type": "Polygon", "coordinates": [[[75.7504, 12.6533], [76.45039999999999, 12.6533], [76.45039999999999, 13.353299999999999], [75.7504, 13.353299999999999], [75.7504, 12.6533]]]}}, {"type": "Feature", "properties": {"district": "Mandya"}, "geometry": {"type": "Polygon", "coordinates": [[[76.5451, 12.171800000000001], [77.2451, 12.171800000000001], [77.2451, 12.8718], [76.5451, 12.8718], [76.5451, 12.171800000000001]]]}}, {"type": "Feature", "properties": {"district": "Kodagu"}, "geometry": {"type": "Polygon", "coordinates": [[[75.4569, 11.9875], [76.1569, 11.9875], [76.1569, 12.6875], [75.4569, 12.6875], [75.4569, 11.9875]]]}}, {"type": "Feature", "properties": {"district": "Udupi"}, "geometry": {"type": "Polygon", "coordinates": [[[74.3921, 12.9909], [75.09209999999999, 12.9909], [75.09209999999999, 13.6909], [74.3921, 13.6909], [74.3921, 12.9909]]]}}, {"type": "Feature", "properties": {"district": "Raichur"}, "geometry": {"type": "Polygon", "coordinates": [[[76.9963, 15.8576], [77.6963, 15.8576], [77.6963, 16.5576], [76.9963, 16.5576], [76.9963, 15.8576]]]}}, {"type": "Feature", "properties": {"district": "Bidar"}, "geometry": {"type": "Polygon", "coordinates": [[[77.16990000000001, 17.560399999999998], [77.8699, 17.560399999999998], [77.8699, 18.2604], [77.16990000000001, 18.2604], [77.16990000000001, 17.560399999999998]]]}}, {"type": "Feature", "properties": {"district": "Koppal"}, "geometry": {"type": "Polygon", "coordinates": [[[75.8054, 14.9917], [76.5054, 14.9917], [76.5054, 15.691699999999999], [75.8054, 15.691699999999999], [75.8054, 14.9917]]]}}, {"type": "Feature", "properties": {"district": "Bagalkote"}, "geometry": {"type": "Polygon", "coordinates": [[[75.31150000000001, 15.8191], [76.0115, 15.8191], [76.0115, 16.5191], [75.31150000000001, 16.5191], [75.31150000000001, 15.8191]]]}}, {"type": "Feature", "properties": {"district": "Gadag"}, "geometry": {"type": "Polygon", "coordinates": [[[75.2925, 15.0789], [75.99249999999999, 15.0789], [75.99249999999999, 15.7789], [75.2925, 15.7789], [75.2925, 15.0789]]]}}, {"type": "Feature", "properties": {"district": "Haveri"}, "geometry": {"type": "Polygon", "coordinates": [[[75.04910000000001, 14.4451], [75.7491, 14.4451], [75.7491, 15.1451], [75.04910000000001, 15.1451], [75.04910000000001, 14.4451]]]}}, {"type": "Feature", "properties": {"district": "Yadgir"}, "geometry": {"type": "Polygon", "coordinates": [[[76.7852, 16.417199999999998], [77.48519999999999, 16.417199999999998], [77.48519999999999, 17.1172], [76.7852, 17.1172], [76.7852, 16.417199999999998]]]}}, {"type": "Feature", "properties": {"district": "Vijayapura"}, "geometry": {"type": "Polygon", "coordinates": [[[75.36, 16.4802], [76.05999999999999, 16.4802], [76.05999999999999, 17.180200000000003], [75.36, 17.180200000000003], [75.36, 16.4802]]]}}, {"type": "Feature", "properties": {"district": "Chamarajanagar"}, "geometry": {"type": "Polygon", "coordinates": [[[76.59, 11.5761], [77.28999999999999, 11.5761], [77.28999999999999, 12.2761], [76.59, 12.2761], [76.59, 11.5761]]]}}, {"type": "Feature", "properties": {"district": "Kolar"}, "geometry": {"type": "Polygon", "coordinates": [[[77.7792, 12.7867], [78.47919999999999, 12.7867], [78.47919999999999, 13.486699999999999], [77.7792, 13.486699999999999], [77.7792, 12.7867]]]}}, {"type": "Feature", "properties": {"district": "Chikkaballapur"}, "geometry": {"type": "Polygon", "coordinates": [[[77.37750000000001, 13.0825], [78.0775, 13.0825], [78.0775, 13.782499999999999], [77.37750000000001, 13.782499999999999], [77.37750000000001, 13.0825]]]}}, {"type": "Feature", "properties": {"district": "Chikkamagaluru"}, "geometry": {"type": "Polygon", "coordinates": [[[75.42200000000001, 12.9661], [76.122, 12.9661], [76.122, 13.6661], [75.42200000000001, 13.6661], [75.42200000000001, 12.9661]]]}}, {"type": "Feature", "properties": {"district": "Ramanagara"}, "geometry": {"type": "Polygon", "coordinates": [[[76.92960000000001, 12.3714], [77.6296, 12.3714], [77.6296, 13.071399999999999], [76.92960000000001, 13.071399999999999], [76.92960000000001, 12.3714]]]}}, {"type": "Feature", "properties": {"district": "Uttara Kannada"}, "geometry": {"type": "Polygon", "coordinates": [[[74.48610000000001, 14.4692], [75.1861, 14.4692], [75.1861, 15.1692], [74.48610000000001, 15.1692], [74.48610000000001, 14.4692]]]}}, {"type": "Feature", "properties": {"district": "Dharwad"}, "geometry": {"type": "Polygon", "coordinates": [[[74.65780000000001, 15.1089], [75.3578, 15.1089], [75.3578, 15.8089], [74.65780000000001, 15.8089], [74.65780000000001, 15.1089]]]}}, {"type": "Feature", "properties": {"district": "Vijayanagara"}, "geometry": {"type": "Polygon", "coordinates": [[[76.03890000000001, 14.925], [76.7389, 14.925], [76.7389, 15.625], [76.03890000000001, 15.625], [76.03890000000001, 14.925]]]}}, {"type": "Feature", "properties": {"district": "Bengaluru Rural"}, "geometry": {"type": "Polygon", "coordinates": [[[77.2822, 12.900500000000001], [77.98219999999999, 12.900500000000001], [77.98219999999999, 13.6005], [77.2822, 13.6005], [77.2822, 12.900500000000001]]]}}, {"type": "Feature", "properties": {"district": "Chitradurga"}, "geometry": {"type": "Polygon", "coordinates": [[[76.048, 13.8751], [76.74799999999999, 13.8751], [76.74799999999999, 14.575099999999999], [76.048, 14.575099999999999], [76.048, 13.8751]]]}}]}